STARLINK-1176           
1 45090U 20006AY  22072.37483730  .00000984  00000+0  84911-4 0  9991
2 45090  53.0544 308.7596 0001592  72.4820 287.6343 15.06409625117379
STARLINK-1137           
1 45092U 20006BA  22072.34904616 -.00000343  00000+0 -41117-5 0  9994
2 45092  53.0559 308.8831 0001606  59.4185 300.6962 15.06399355117365
STARLINK-1142           
1 45093U 20006BB  22072.34538586  .00007534  00000+0  52444-3 0  9994
2 45093  53.0556 308.8942 0001402  68.5029 291.6109 15.06380137117368
STARLINK-1146           
1 45094U 20006BC  22072.55914468 -.00000742  00000+0 -30925-4 0  9992
2 45094  53.0551 307.9357 0001438  71.8154 288.2991 15.06397927117400
STARLINK-1147           
1 45095U 20006BD  22072.09839288  .00001116  00000+0  93778-4 0  9997
2 45095  53.0535 310.0126 0001678  63.0487 297.0673 15.06408583117338
STARLINK-1152           
1 45096U 20006BE  22072.35643255 -.00002579  00000+0 -15435-3 0  9993
2 45096  53.0533 308.8552 0001687  64.3539 295.7624 15.06393769117360
STARLINK-1184           
1 45098U 20006BG  22072.13894638  .00000381  00000+0  44488-4 0  9992
2 45098  53.0524 309.8292 0001640  79.9136 280.2038 15.06390245117339
STARLINK-1186           
1 45099U 20006BH  22072.37116585  .00000479  00000+0  51056-4 0  9994
2 45099  53.0570 308.7821 0001597  56.8647 303.2495 15.06392787117379
STARLINK-1193           
1 45100U 20006BJ  22072.13527248 -.00001335  00000+0 -70698-4 0  9990
2 45100  53.0570 309.8280 0001696  67.3671 292.7498 15.06405970117685
STARLINK-1194           
1 45101U 20006BK  22072.13156317 -.00002988  00000+0 -18176-3 0  9993
2 45101  53.0542 309.8397 0001708  65.9425 294.1742 15.06404941117684
STARLINK-1195           
1 45102U 20006BL  22072.35273655 -.00002122  00000+0 -12357-3 0  9998
2 45102  53.0542 308.8717 0001655  68.3796 291.7369 15.06400990117362
STARLINK-1196           
1 45103U 20006BM  22072.45130977 -.00000922  00000+0 -43020-4 0  9997
2 45103  53.0511 308.4818 0001258  83.1677 276.9455 15.06394052117383
ORBITAL FACTORY 2 (OF-2)
1 45113U 19071C   22072.50838233  .00020726  00000+0  51177-3 0  9997
2 45113  51.6396 169.6503 0009273 188.6846 171.3980 15.40429692118560
