[
    {
       "OBJECT_NAME": "STARLINK-1176",
       "OBJECT_ID": "2020-006AY",
       "EPOCH": "2022-03-13T08:59:45.942720",
       "MEAN_MOTION": 15.06409625,
       "ECCENTRICITY": 0.0001592,
       "INCLINATION": 53.0544,
       "RA_OF_ASC_NODE": 308.7596,
       "ARG_OF_PERICENTER": 72.482,
       "MEAN_ANOMALY": 287.6343,
       "EPHEMERIS_TYPE": 0,
       "CLASSIFICATION_TYPE": "U",
       "NORAD_CAT_ID": 45090,
       "ELEMENT_SET_NO": 999,
       "REV_AT_EPOCH": 11737,
       "BSTAR": 0.000084911,
       "MEAN_MOTION_DOT": 0.00000984,
       "MEAN_MOTION_DDOT": 0
    },
    {
       "OBJECT_NAME": "STARLINK-1137",
       "OBJECT_ID": "2020-006BA",
       "EPOCH": "2022-03-13T08:22:37.588224",
       "MEAN_MOTION": 15.06399355,
       "ECCENTRICITY": 0.0001606,
       "INCLINATION": 53.0559,
       "RA_OF_ASC_NODE": 308.8831,
       "ARG_OF_PERICENTER": 59.4185,
       "MEAN_ANOMALY": 300.6962,
       "EPHEMERIS_TYPE": 0,
       "CLASSIFICATION_TYPE": "U",
       "NORAD_CAT_ID": 45092,
       "ELEMENT_SET_NO": 999,
       "REV_AT_EPOCH": 11736,
       "BSTAR": -0.0000041117,
       "MEAN_MOTION_DOT": -0.00000343,
       "MEAN_MOTION_DDOT": 0
    },
    {
       "OBJECT_NAME": "STARLINK-1142",
       "OBJECT_ID": "2020-006BB",
       "EPOCH": "2022-03-13T08:17:21.338304",
       "MEAN_MOTION": 15.06380137,
       "ECCENTRICITY": 0.0001402,
       "INCLINATION": 53.0556,
       "RA_OF_ASC_NODE": 308.8942,
       "ARG_OF_PERICENTER": 68.5029,
       "MEAN_ANOMALY": 291.6109,
       "EPHEMERIS_TYPE": 0,
       "CLASSIFICATION_TYPE": "U",
       "NORAD_CAT_ID": 45093,
       "ELEMENT_SET_NO": 999,
       "REV_AT_EPOCH": 11736,
       "BSTAR": 0.00052444,
       "MEAN_MOTION_DOT": 0.00007534,
       "MEAN_MOTION_DDOT": 0
    },
    {
       "OBJECT_NAME": "STARLINK-1146",
       "OBJECT_ID": "2020-006BC",
       "EPOCH": "2022-03-13T13:25:10.100352",
       "MEAN_MOTION": 15.06397927,
       "ECCENTRICITY": 0.0001438,
       "INCLINATION": 53.0551,
       "RA_OF_ASC_NODE": 307.9357,
       "ARG_OF_PERICENTER": 71.8154,
       "MEAN_ANOMALY": 288.2991,
       "EPHEMERIS_TYPE": 0,
       "CLASSIFICATION_TYPE": "U",
       "NORAD_CAT_ID": 45094,
       "ELEMENT_SET_NO": 999,
       "REV_AT_EPOCH": 11740,
       "BSTAR": -0.000030925,
       "MEAN_MOTION_DOT": -0.00000742,
       "MEAN_MOTION_DDOT": 0
    },
    {
       "OBJECT_NAME": "STARLINK-1147",
       "OBJECT_ID": "2020-006BD",
       "EPOCH": "2022-03-13T02:21:41.144832",
       "MEAN_MOTION": 15.06408583,
       "ECCENTRICITY": 0.0001678,
       "INCLINATION": 53.0535,
       "RA_OF_ASC_NODE": 310.0126,
       "ARG_OF_PERICENTER": 63.0487,
       "MEAN_ANOMALY": 297.0673,
       "EPHEMERIS_TYPE": 0,
       "CLASSIFICATION_TYPE": "U",
       "NORAD_CAT_ID": 45095,
       "ELEMENT_SET_NO": 999,
       "REV_AT_EPOCH": 11733,
       "BSTAR": 0.000093778,
       "MEAN_MOTION_DOT": 0.00001116,
       "MEAN_MOTION_DDOT": 0
    },
    {
       "OBJECT_NAME": "STARLINK-1152",
       "OBJECT_ID": "2020-006BE",
       "EPOCH": "2022-03-13T08:33:15.772320",
       "MEAN_MOTION": 15.06393769,
       "ECCENTRICITY": 0.0001687,
       "INCLINATION": 53.0533,
       "RA_OF_ASC_NODE": 308.8552,
       "ARG_OF_PERICENTER": 64.3539,
       "MEAN_ANOMALY": 295.7624,
       "EPHEMERIS_TYPE": 0,
       "CLASSIFICATION_TYPE": "U",
       "NORAD_CAT_ID": 45096,
       "ELEMENT_SET_NO": 999,
       "REV_AT_EPOCH": 11736,
       "BSTAR": -0.00015435,
       "MEAN_MOTION_DOT": -0.00002579,
       "MEAN_MOTION_DDOT": 0
    },
    {
       "OBJECT_NAME": "STARLINK-1184",
       "OBJECT_ID": "2020-006BG",
       "EPOCH": "2022-03-13T03:20:04.967232",
       "MEAN_MOTION": 15.06390245,
       "ECCENTRICITY": 0.000164,
       "INCLINATION": 53.0524,
       "RA_OF_ASC_NODE": 309.8292,
       "ARG_OF_PERICENTER": 79.9136,
       "MEAN_ANOMALY": 280.2038,
       "EPHEMERIS_TYPE": 0,
       "CLASSIFICATION_TYPE": "U",
       "NORAD_CAT_ID": 45098,
       "ELEMENT_SET_NO": 999,
       "REV_AT_EPOCH": 11733,
       "BSTAR": 0.000044488,
       "MEAN_MOTION_DOT": 0.00000381,
       "MEAN_MOTION_DDOT": 0
    },
    {
       "OBJECT_NAME": "STARLINK-1186",
       "OBJECT_ID": "2020-006BH",
       "EPOCH": "2022-03-13T08:54:28.729440",
       "MEAN_MOTION": 15.06392787,
       "ECCENTRICITY": 0.0001597,
       "INCLINATION": 53.057,
       "RA_OF_ASC_NODE": 308.7821,
       "ARG_OF_PERICENTER": 56.8647,
       "MEAN_ANOMALY": 303.2495,
       "EPHEMERIS_TYPE": 0,
       "CLASSIFICATION_TYPE": "U",
       "NORAD_CAT_ID": 45099,
       "ELEMENT_SET_NO": 999,
       "REV_AT_EPOCH": 11737,
       "BSTAR": 0.000051056,
       "MEAN_MOTION_DOT": 0.00000479,
       "MEAN_MOTION_DDOT": 0
    },
    {
       "OBJECT_NAME": "STARLINK-1193",
       "OBJECT_ID": "2020-006BJ",
       "EPOCH": "2022-03-13T03:14:47.542272",
       "MEAN_MOTION": 15.0640597,
       "ECCENTRICITY": 0.0001696,
       "INCLINATION": 53.057,
       "RA_OF_ASC_NODE": 309.828,
       "ARG_OF_PERICENTER": 67.3671,
       "MEAN_ANOMALY": 292.7498,
       "EPHEMERIS_TYPE": 0,
       "CLASSIFICATION_TYPE": "U",
       "NORAD_CAT_ID": 45100,
       "ELEMENT_SET_NO": 999,
       "REV_AT_EPOCH": 11768,
       "BSTAR": -0.000070698,
       "MEAN_MOTION_DOT": -0.00001335,
       "MEAN_MOTION_DDOT": 0
    },
    {
       "OBJECT_NAME": "STARLINK-1194",
       "OBJECT_ID": "2020-006BK",
       "EPOCH": "2022-03-13T03:09:27.057888",
       "MEAN_MOTION": 15.06404941,
       "ECCENTRICITY": 0.0001708,
       "INCLINATION": 53.0542,
       "RA_OF_ASC_NODE": 309.8397,
       "ARG_OF_PERICENTER": 65.9425,
       "MEAN_ANOMALY": 294.1742,
       "EPHEMERIS_TYPE": 0,
       "CLASSIFICATION_TYPE": "U",
       "NORAD_CAT_ID": 45101,
       "ELEMENT_SET_NO": 999,
       "REV_AT_EPOCH": 11768,
       "BSTAR": -0.00018176,
       "MEAN_MOTION_DOT": -0.00002988,
       "MEAN_MOTION_DDOT": 0
    },
    {
       "OBJECT_NAME": "STARLINK-1195",
       "OBJECT_ID": "2020-006BL",
       "EPOCH": "2022-03-13T08:27:56.437920",
       "MEAN_MOTION": 15.0640099,
       "ECCENTRICITY": 0.0001655,
       "INCLINATION": 53.0542,
       "RA_OF_ASC_NODE": 308.8717,
       "ARG_OF_PERICENTER": 68.3796,
       "MEAN_ANOMALY": 291.7369,
       "EPHEMERIS_TYPE": 0,
       "CLASSIFICATION_TYPE": "U",
       "NORAD_CAT_ID": 45102,
       "ELEMENT_SET_NO": 999,
       "REV_AT_EPOCH": 11736,
       "BSTAR": -0.00012357,
       "MEAN_MOTION_DOT": -0.00002122,
       "MEAN_MOTION_DDOT": 0
    },
    {
       "OBJECT_NAME": "STARLINK-1196",
       "OBJECT_ID": "2020-006BM",
       "EPOCH": "2022-03-13T10:49:53.164128",
       "MEAN_MOTION": 15.06394052,
       "ECCENTRICITY": 0.0001258,
       "INCLINATION": 53.0511,
       "RA_OF_ASC_NODE": 308.4818,
       "ARG_OF_PERICENTER": 83.1677,
       "MEAN_ANOMALY": 276.9455,
       "EPHEMERIS_TYPE": 0,
       "CLASSIFICATION_TYPE": "U",
       "NORAD_CAT_ID": 45103,
       "ELEMENT_SET_NO": 999,
       "REV_AT_EPOCH": 11738,
       "BSTAR": -0.00004302,
       "MEAN_MOTION_DOT": -0.00000922,
       "MEAN_MOTION_DDOT": 0
    },
    {
       "OBJECT_NAME": "ORBITAL FACTORY 2 (OF-2)",
       "OBJECT_ID": "2019-071C",
       "EPOCH": "2022-03-13T12:12:04.233312",
       "MEAN_MOTION": 15.40429692,
       "ECCENTRICITY": 0.0009273,
       "INCLINATION": 51.6396,
       "RA_OF_ASC_NODE": 169.6503,
       "ARG_OF_PERICENTER": 188.6846,
       "MEAN_ANOMALY": 171.398,
       "EPHEMERIS_TYPE": 0,
       "CLASSIFICATION_TYPE": "U",
       "NORAD_CAT_ID": 45113,
       "ELEMENT_SET_NO": 999,
       "REV_AT_EPOCH": 11856,
       "BSTAR": 0.00051177,
       "MEAN_MOTION_DOT": 0.00020726,
       "MEAN_MOTION_DDOT": 0
    }
 ]